{"total_count": 172, "states": [{"name": "Andaman and Nicobar Islands", "count": 0, "centers": []}, {"name": "Andhra Pradesh", "count": 0, "centers": []}, {"name": "Arunachal Pradesh", "count": 0, "centers": []}, {"name": "Assam", "count": 0, "centers": []}, {"name": "Bihar", "count": 0, "centers": []}, {"name": "Chandigarh", "count": 0, "centers": []}, {"name": "Chhattisgarh", "count": 2, "centers": [{"name": "Chc Devbhog 18", "district": "Gariaband", "state": "Chhattisgarh", "pincode": 493890, "available": 97}, {"name": "CHC Chhura 18", "district": "Gariaband", "state": "Chhattisgarh", "pincode": 493996, "available": 26}]}, {"name": "Dadra and Nagar Haveli", "count": 0, "centers": []}, {"name": "Daman and Diu", "count": 0, "centers": []}, {"name": "Delhi", "count": 45, "centers": [{"name": "SBV JAMA MASJID HINDI SITE 5", "district": "Central Delhi", "state": "Delhi", "pincode": 110006, "available": 307}, {"name": "SBV JAMA MASJID URDU SITE 1", "district": "Central Delhi", "state": "Delhi", "pincode": 110006, "available": 191}, {"name": "Sarvodhya V Mori G NO.1 SITE 5", "district": "Central Delhi", "state": "Delhi", "pincode": 110006, "available": 2}, {"name": "SBV JAMA MASJID URDU SITE 2", "district": "Central Delhi", "state": "Delhi", "pincode": 110006, "available": 390}, {"name": "Sarvodhya V Mori G NO.1 SITE 2", "district": "Central Delhi", "state": "Delhi", "pincode": 110006, "available": 293}, {"name": "SBV JAMA MASJID URDU SITE 3", "district": "Central Delhi", "state": "Delhi", "pincode": 110006, "available": 393}, {"name": "SBV JAMA MASJID HINDI SITE 4", "district": "Central Delhi", "state": "Delhi", "pincode": 110006, "available": 180}, {"name": "Sarvodhya V Mori G NO.1 SITE 1", "district": "Central Delhi", "state": "Delhi", "pincode": 110006, "available": 1}, {"name": "Gov.Girls S.Sec.Sch.No.1 Site4", "district": "North Delhi", "state": "Delhi", "pincode": 110039, "available": 301}, {"name": "Sarvodaya Bal Vidyalaya 5", "district": "North Delhi", "state": "Delhi", "pincode": 110039, "available": 397}, {"name": "Govt.Girls SeniorSec. School5", "district": "North Delhi", "state": "Delhi", "pincode": 110042, "available": 71}, {"name": "Sarvodaya Bal Vidyalaya 4", "district": "North Delhi", "state": "Delhi", "pincode": 110039, "available": 420}, {"name": "Gov.Girls S.Sec.Sch.No.1 Site3", "district": "North Delhi", "state": "Delhi", "pincode": 110039, "available": 123}, {"name": "Govt.Girl Senior Sec. School 3", "district": "North Delhi", "state": "Delhi", "pincode": 110042, "available": 2}, {"name": "Gov.Girls S.Sec.Sch.No.1 Site5", "district": "North Delhi", "state": "Delhi", "pincode": 110039, "available": 335}, {"name": "Sarvodaya Bal Vidyalaya 1", "district": "North Delhi", "state": "Delhi", "pincode": 110039, "available": 126}, {"name": "Sarvodaya Bal Vidyalaya 3", "district": "North Delhi", "state": "Delhi", "pincode": 110039, "available": 405}, {"name": "Sarvodaya Bal Vidyalaya 2", "district": "North Delhi", "state": "Delhi", "pincode": 110039, "available": 373}, {"name": "Gov.Girls S.Sec.Sch.No.1 Site1", "district": "North Delhi", "state": "Delhi", "pincode": 110039, "available": 1}, {"name": "Gov Boys Sec School Site-4", "district": "North East Delhi", "state": "Delhi", "pincode": 110094, "available": 1}, {"name": "Gov Girls S Sec School Site-2", "district": "North East Delhi", "state": "Delhi", "pincode": 110094, "available": 306}, {"name": "Gov Girls Sr Sec School Site-2", "district": "North East Delhi", "state": "Delhi", "pincode": 110094, "available": 380}, {"name": "Gov Boys Sr Se Sc No. 1 Site-5", "district": "North East Delhi", "state": "Delhi", "pincode": 110053, "available": 62}, {"name": "Gov Girls S Sec School Site-5", "district": "North East Delhi", "state": "Delhi", "pincode": 110094, "available": 400}, {"name": "Gov Girls S Sec School Site-3", "district": "North East Delhi", "state": "Delhi", "pincode": 110094, "available": 375}, {"name": "Gov Girls Sr Se Sc No.1 Site-1", "district": "North East Delhi", "state": "Delhi", "pincode": 110053, "available": 1}, {"name": "Gov Boys Sr Sec School Site-5", "district": "North East Delhi", "state": "Delhi", "pincode": 110094, "available": 327}, {"name": "Gov Girls Sr Sec School Site-5", "district": "North East Delhi", "state": "Delhi", "pincode": 110094, "available": 398}, {"name": "Gov Girls Sr Sec School Site-1", "district": "North East Delhi", "state": "Delhi", "pincode": 110094, "available": 241}, {"name": "Gov Boys Sr Sec School Site-3", "district": "North East Delhi", "state": "Delhi", "pincode": 110094, "available": 202}, {"name": "Gov Boys Sec School Site-5", "district": "North East Delhi", "state": "Delhi", "pincode": 110094, "available": 74}, {"name": "Gov Boys Sr Sec School Site-1", "district": "North East Delhi", "state": "Delhi", "pincode": 110094, "available": 20}, {"name": "Gov Girls Sr Se Sc No.1 Site-3", "district": "North East Delhi", "state": "Delhi", "pincode": 110053, "available": 120}, {"name": "Gov Girls Sr Sec School Site-4", "district": "North East Delhi", "state": "Delhi", "pincode": 110094, "available": 398}, {"name": "Gov Girls S Sec School Site-4", "district": "North East Delhi", "state": "Delhi", "pincode": 110094, "available": 401}, {"name": "Gov Girls Sr Se Sc No.1 Site-2", "district": "North East Delhi", "state": "Delhi", "pincode": 110053, "available": 47}, {"name": "Gov Girls S Sec School Site-1", "district": "North East Delhi", "state": "Delhi", "pincode": 110094, "available": 255}, {"name": "Gov Girls Sr Sec School Site-3", "district": "North East Delhi", "state": "Delhi", "pincode": 110094, "available": 192}, {"name": "Gov Girls Sr Se Sc No.1 Site-4", "district": "North East Delhi", "state": "Delhi", "pincode": 110053, "available": 305}, {"name": "Gov Boys Sr Sec School Site-4", "district": "North East Delhi", "state": "Delhi", "pincode": 110094, "available": 337}, {"name": "Gov Girls Sr Se Sc No.1 Site-5", "district": "North East Delhi", "state": "Delhi", "pincode": 110053, "available": 275}, {"name": "Gov Boys Sr Sec School Site-2", "district": "North East Delhi", "state": "Delhi", "pincode": 110094, "available": 197}, {"name": "Cygnus MLS Hospital", "district": "North West Delhi", "state": "Delhi", "pincode": 110081, "available": 1}, {"name": "GOVTGIRLS SCH.2 UTTAM NAGAR 4", "district": "South West Delhi", "state": "Delhi", "pincode": 110059, "available": 1}, {"name": "S B V (ID 1516143) Sites 3", "district": "West Delhi", "state": "Delhi", "pincode": 110008, "available": 2}]}, {"name": "Goa", "count": 0, "centers": []}, {"name": "Gujarat", "count": 5, "centers": [{"name": "Amraiwadi Guj School 1 And 6", "district": "Ahmedabad Corporation", "state": "Gujarat", "pincode": 380026, "available": 100}, {"name": "Urdu Shala No 8", "district": "Ahmedabad Corporation", "state": "Gujarat", "pincode": 380001, "available": 84}, {"name": "Uphc Chhotaudepur", "district": "Chhotaudepur", "state": "Gujarat", "pincode": 391165, "available": 50}, {"name": "Mudeti PHC", "district": "Sabarkantha", "state": "Gujarat", "pincode": 383450, "available": 47}, {"name": "Balda Phc", "district": "Valsad", "state": "Gujarat", "pincode": 396125, "available": 49}]}, {"name": "Haryana", "count": 51, "centers": [{"name": "Radha Swami Satsang Ghar Beas", "district": "Ambala", "state": "Haryana", "pincode": 134003, "available": 155}, {"name": "Barara 18-44 CHC", "district": "Ambala", "state": "Haryana", "pincode": 133201, "available": 1}, {"name": "Poly Clinic 18-44 DISP", "district": "Ambala", "state": "Haryana", "pincode": 134003, "available": 1}, {"name": "Mullana 18-44 CHC", "district": "Ambala", "state": "Haryana", "pincode": 133203, "available": 156}, {"name": "Kullan PHC", "district": "Fatehabad", "state": "Haryana", "pincode": 125106, "available": 2}, {"name": "Jakhal Village", "district": "Fatehabad", "state": "Haryana", "pincode": 125133, "available": 30}, {"name": "Ghangola CHC", "district": "Gurgaon", "state": "Haryana", "pincode": 122102, "available": 1}, {"name": "Civil Hospital Narnaund", "district": "Hisar", "state": "Haryana", "pincode": 125039, "available": 305}, {"name": "CHC Dighal 18", "district": "Jhajjar", "state": "Haryana", "pincode": 124107, "available": 2}, {"name": "GH Jhajjar 18", "district": "Jhajjar", "state": "Haryana", "pincode": 124103, "available": 1}, {"name": "PHC Dhand", "district": "Kaithal", "state": "Haryana", "pincode": 136020, "available": 44}, {"name": "PHC Padla", "district": "Kaithal", "state": "Haryana", "pincode": 136027, "available": 53}, {"name": "CHC Rajound", "district": "Kaithal", "state": "Haryana", "pincode": 136044, "available": 66}, {"name": "Civil Hospital Karnal", "district": "Karnal", "state": "Haryana", "pincode": 132001, "available": 1}, {"name": "UPHC Indira Colony", "district": "Karnal", "state": "Haryana", "pincode": 132001, "available": 187}, {"name": "UPHCramnagar", "district": "Karnal", "state": "Haryana", "pincode": 132001, "available": 159}, {"name": "KCGMC PEDIATRIC OPD RM224 2FLR", "district": "Karnal", "state": "Haryana", "pincode": 132001, "available": 6}, {"name": "City DISP UPHC", "district": "Karnal", "state": "Haryana", "pincode": 132001, "available": 169}, {"name": "Shiv Colony DISP UPHC", "district": "Karnal", "state": "Haryana", "pincode": 132001, "available": 200}, {"name": "FEROZEPUR JHIRKA CHC - 18", "district": "Nuh", "state": "Haryana", "pincode": 122104, "available": 50}, {"name": "CIVIL HOSPITAL MANDIKHERA- 18", "district": "Nuh", "state": "Haryana", "pincode": 122108, "available": 56}, {"name": "PUNHANA CHC- 18", "district": "Nuh", "state": "Haryana", "pincode": 122508, "available": 200}, {"name": "Dadlana CHC", "district": "Panipat", "state": "Haryana", "pincode": 132140, "available": 79}, {"name": "Mandi PHC", "district": "Panipat", "state": "Haryana", "pincode": 132107, "available": 97}, {"name": "PHC Basduda", "district": "Rewari", "state": "Haryana", "pincode": 123103, "available": 2}, {"name": "Dadu PHC", "district": "Sirsa", "state": "Haryana", "pincode": 125201, "available": 50}, {"name": "Jagmalera PHC", "district": "Sirsa", "state": "Haryana", "pincode": 125075, "available": 39}, {"name": "Mohana PHC", "district": "Sonipat", "state": "Haryana", "pincode": 131001, "available": 24}, {"name": "Mundlana CHC Covishield", "district": "Sonipat", "state": "Haryana", "pincode": 131306, "available": 30}, {"name": "CHC Firozpur Bangar", "district": "Sonipat", "state": "Haryana", "pincode": 131402, "available": 3}, {"name": "Bhainswal Kalan CHC", "district": "Sonipat", "state": "Haryana", "pincode": 131409, "available": 106}, {"name": "Bidhlan PHC", "district": "Sonipat", "state": "Haryana", "pincode": 131402, "available": 181}, {"name": "Baroda PHC", "district": "Sonipat", "state": "Haryana", "pincode": 131301, "available": 1}, {"name": "Phc Sisana", "district": "Sonipat", "state": "Haryana", "pincode": 131402, "available": 109}, {"name": "PHC Mahra", "district": "Sonipat", "state": "Haryana", "pincode": 131024, "available": 72}, {"name": "Khanda PHC Cowin", "district": "Sonipat", "state": "Haryana", "pincode": 131402, "available": 103}, {"name": "Madina PHC", "district": "Sonipat", "state": "Haryana", "pincode": 131301, "available": 77}, {"name": "Khanpur Kalan PHC", "district": "Sonipat", "state": "Haryana", "pincode": 131305, "available": 154}, {"name": "Moi Majri PHC", "district": "Sonipat", "state": "Haryana", "pincode": 131102, "available": 68}, {"name": "PHC SARAGTHAL", "district": "Sonipat", "state": "Haryana", "pincode": 131305, "available": 89}, {"name": "Farmana PHC Covishield", "district": "Sonipat", "state": "Haryana", "pincode": 131408, "available": 161}, {"name": "Kharkhoda CHC", "district": "Sonipat", "state": "Haryana", "pincode": 131402, "available": 105}, {"name": "Jagsi PHC Covishield", "district": "Sonipat", "state": "Haryana", "pincode": 131306, "available": 152}, {"name": "Juan CHC", "district": "Sonipat", "state": "Haryana", "pincode": 131024, "available": 197}, {"name": "PHC Ahulana", "district": "Sonipat", "state": "Haryana", "pincode": 131102, "available": 81}, {"name": "Butana PHC", "district": "Sonipat", "state": "Haryana", "pincode": 131302, "available": 32}, {"name": "Purkhash PHC", "district": "Sonipat", "state": "Haryana", "pincode": 131102, "available": 47}, {"name": "Lath PHC", "district": "Sonipat", "state": "Haryana", "pincode": 131301, "available": 98}, {"name": "Dubheta PHC", "district": "Sonipat", "state": "Haryana", "pincode": 131102, "available": 78}, {"name": "PHC Shamri", "district": "Sonipat", "state": "Haryana", "pincode": 131306, "available": 160}, {"name": "Rukhi PHC", "district": "Sonipat", "state": "Haryana", "pincode": 131301, "available": 121}]}, {"name": "Himachal Pradesh", "count": 0, "centers": []}, {"name": "Jammu and Kashmir", "count": 14, "centers": [{"name": "NTPHC SUKRALA", "district": "Kathua", "state": "Jammu and Kashmir", "pincode": 184204, "available": 152}, {"name": "SMC 8 FBSU AIR FORCE", "district": "Pulwama", "state": "Jammu and Kashmir", "pincode": 192301, "available": 49}, {"name": "FH Awantipura", "district": "Pulwama", "state": "Jammu and Kashmir", "pincode": 192121, "available": 50}, {"name": "Boys Middle School Hazratbal", "district": "Srinagar", "state": "Jammu and Kashmir", "pincode": 190006, "available": 1247}, {"name": "G.B Panth Hospital", "district": "Srinagar", "state": "Jammu and Kashmir", "pincode": 190001, "available": 216}, {"name": "Natipora SC 18-44yrs", "district": "Srinagar", "state": "Jammu and Kashmir", "pincode": 190001, "available": 297}, {"name": "Girls Higher Sec Schl Batmalo", "district": "Srinagar", "state": "Jammu and Kashmir", "pincode": 191202, "available": 771}, {"name": "Community Hall Illahi Bagh", "district": "Srinagar", "state": "Jammu and Kashmir", "pincode": 191202, "available": 989}, {"name": "HEALTH CENTER MISKEENBAGH", "district": "Srinagar", "state": "Jammu and Kashmir", "pincode": 190003, "available": 708}, {"name": "Nishat PHC 18 Years", "district": "Srinagar", "state": "Jammu and Kashmir", "pincode": 191121, "available": 609}, {"name": "State Cancer Institute Soura", "district": "Srinagar", "state": "Jammu and Kashmir", "pincode": 190011, "available": 1031}, {"name": "MIRINDA PUBLIC SCHOOL CHINKRAL", "district": "Srinagar", "state": "Jammu and Kashmir", "pincode": 190002, "available": 947}, {"name": "SMHS Well Baby Clinic 18-44age", "district": "Srinagar", "state": "Jammu and Kashmir", "pincode": 190010, "available": 2}, {"name": "Station Medicare Centre AF", "district": "Srinagar", "state": "Jammu and Kashmir", "pincode": 190007, "available": 137}]}, {"name": "Jharkhand", "count": 0, "centers": []}, {"name": "Karnataka", "count": 1, "centers": [{"name": "Dodwad PHC", "district": "Belgaum", "state": "Karnataka", "pincode": 591104, "available": 16}]}, {"name": "Kerala", "count": 0, "centers": []}, {"name": "Ladakh", "count": 3, "centers": [{"name": "MH KARGIL", "district": "Kargil", "state": "Ladakh", "pincode": 194103, "available": 45}, {"name": "408 Field Hospital Batalik", "district": "Kargil", "state": "Ladakh", "pincode": 194102, "available": 50}, {"name": "Field Hospital Drass", "district": "Kargil", "state": "Ladakh", "pincode": 194102, "available": 6}]}, {"name": "Lakshadweep", "count": 1, "centers": [{"name": "Test CVC 1", "district": "Agatti Island", "state": "Lakshadweep", "pincode": 999991, "available": 49}]}, {"name": "Madhya Pradesh", "count": 3, "centers": [{"name": "PHC Nayagaon (Chitrakut)", "district": "Satna", "state": "Madhya Pradesh", "pincode": 485334, "available": 15}, {"name": "PHC JAITWARA", "district": "Satna", "state": "Madhya Pradesh", "pincode": 485221, "available": 15}, {"name": "Majhagawan CHC", "district": "Satna", "state": "Madhya Pradesh", "pincode": 485331, "available": 29}]}, {"name": "Maharashtra", "count": 10, "centers": [{"name": "Mahatmaphule UHC(18 To45 Year)", "district": "Ahmednagar", "state": "Maharashtra", "pincode": 414001, "available": 112}, {"name": "SDH SAKOLI (18 TO 44Age)", "district": "Bhandara", "state": "Maharashtra", "pincode": 441802, "available": 419}, {"name": "Sakri RH (18-44)", "district": "Dhule", "state": "Maharashtra", "pincode": 424304, "available": 78}, {"name": "Dondaicha SDH ( 18-44)", "district": "Dhule", "state": "Maharashtra", "pincode": 425408, "available": 7}, {"name": "Koregaon Phc(18 To 44 Years)", "district": "Gadchiroli", "state": "Maharashtra", "pincode": 441207, "available": 199}, {"name": "Armori SDH (18 To 44 Years)", "district": "Gadchiroli", "state": "Maharashtra", "pincode": 441208, "available": 116}, {"name": "Sadak Arjuni RH", "district": "Gondia", "state": "Maharashtra", "pincode": 441807, "available": 1}, {"name": "KOLHAPUR CANCER CENTRE", "district": "Kolhapur", "state": "Maharashtra", "pincode": 416234, "available": 1}, {"name": "Nelson Mother Child Hospital", "district": "Nagpur", "state": "Maharashtra", "pincode": 440012, "available": 76}, {"name": "Shivale PHC(18 To 44 Age Only)", "district": "Thane", "state": "Maharashtra", "pincode": 421401, "available": 1}]}, {"name": "Manipur", "count": 0, "centers": []}, {"name": "Meghalaya", "count": 0, "centers": []}, {"name": "Mizoram", "count": 0, "centers": []}, {"name": "Nagaland", "count": 0, "centers": []}, {"name": "Odisha", "count": 0, "centers": []}, {"name": "Puducherry", "count": 0, "centers": []}, {"name": "Punjab", "count": 3, "centers": [{"name": "EMC Hospital Site A", "district": "Amritsar", "state": "Punjab", "pincode": 143001, "available": 99}, {"name": "Dhanaula CHC", "district": "Barnala", "state": "Punjab", "pincode": 148105, "available": 99}, {"name": "CHC Pakhowal", "district": "Ludhiana", "state": "Punjab", "pincode": 141108, "available": 20}]}, {"name": "Rajasthan", "count": 11, "centers": [{"name": "Raghunathgarh PHC", "district": "Alwar", "state": "Rajasthan", "pincode": 301025, "available": 40}, {"name": "18GSSS Ronijathan Block Kherli", "district": "Alwar", "state": "Rajasthan", "pincode": 301035, "available": 5}, {"name": "18 PL Jaitpur Phc SHAJAPUR", "district": "Alwar", "state": "Rajasthan", "pincode": 301706, "available": 15}, {"name": "18-44 PHC PADA RENI", "district": "Alwar", "state": "Rajasthan", "pincode": 301409, "available": 2}, {"name": "CHC BHIWADI Above 18", "district": "Alwar", "state": "Rajasthan", "pincode": 301411, "available": 297}, {"name": "18 PL KAYSA PHC SHAJAPUR", "district": "Alwar", "state": "Rajasthan", "pincode": 301703, "available": 50}, {"name": "Canal Colony Hanumangarh Jn 1", "district": "Hanumangarh", "state": "Rajasthan", "pincode": 335512, "available": 26}, {"name": "SUKET CHC (18-44 Yrs)", "district": "Kota", "state": "Rajasthan", "pincode": 326530, "available": 10}, {"name": "DESURI- CHC", "district": "Pali", "state": "Rajasthan", "pincode": 306703, "available": 90}, {"name": "NADOL CHC BOOTH-1", "district": "Pali", "state": "Rajasthan", "pincode": 306603, "available": 131}, {"name": "Kotra CHC", "district": "Udaipur", "state": "Rajasthan", "pincode": 307025, "available": 1}]}, {"name": "Sikkim", "count": 0, "centers": []}, {"name": "Tamil Nadu", "count": 8, "centers": [{"name": "Apollo Speciality Hospitals", "district": "Chennai", "state": "Tamil Nadu", "pincode": 600035, "available": 1}, {"name": "NANJUNDAPURAM UPHC", "district": "Coimbatore", "state": "Tamil Nadu", "pincode": 641041, "available": 1}, {"name": "Karamadai CCP", "district": "Coimbatore", "state": "Tamil Nadu", "pincode": 641104, "available": 50}, {"name": "RK Cardiacare Centre", "district": "Dindigul", "state": "Tamil Nadu", "pincode": 624001, "available": 96}, {"name": "Vedaraniyam Urban PHC", "district": "Nagapattinam", "state": "Tamil Nadu", "pincode": 614810, "available": 49}, {"name": "Dhanushkodi Hospital", "district": "Sivakasi", "state": "Tamil Nadu", "pincode": 626203, "available": 100}, {"name": "Apollo Hospitals Ayyanambakkam", "district": "Tiruvallur", "state": "Tamil Nadu", "pincode": 600095, "available": 31}, {"name": "Raaj Hospital", "district": "Tiruvarur", "state": "Tamil Nadu", "pincode": 614001, "available": 299}]}, {"name": "Telangana", "count": 0, "centers": []}, {"name": "Tripura", "count": 0, "centers": []}, {"name": "Uttar Pradesh", "count": 15, "centers": [{"name": "Shri Krishna Mission Hospital", "district": "Basti", "state": "Uttar Pradesh", "pincode": 272002, "available": 1}, {"name": "PHC Lohda 5 April", "district": "Chitrakoot", "state": "Uttar Pradesh", "pincode": 210206, "available": 119}, {"name": "PHC Ganeewa 5 April", "district": "Chitrakoot", "state": "Uttar Pradesh", "pincode": 210206, "available": 120}, {"name": "PHC Darseda 5 April", "district": "Chitrakoot", "state": "Uttar Pradesh", "pincode": 210206, "available": 120}, {"name": "PHC Sardhua 5 April", "district": "Chitrakoot", "state": "Uttar Pradesh", "pincode": 210206, "available": 60}, {"name": "PHC Bachharan 5 April", "district": "Chitrakoot", "state": "Uttar Pradesh", "pincode": 210206, "available": 119}, {"name": "PHC Bihrawa 5 April", "district": "Chitrakoot", "state": "Uttar Pradesh", "pincode": 210206, "available": 120}, {"name": "CHC Pahari 5 April", "district": "Chitrakoot", "state": "Uttar Pradesh", "pincode": 210206, "available": 171}, {"name": "CHC Pahari Covaxin", "district": "Chitrakoot", "state": "Uttar Pradesh", "pincode": 210206, "available": 87}, {"name": "PHC Dewal 5 April", "district": "Chitrakoot", "state": "Uttar Pradesh", "pincode": 210206, "available": 120}, {"name": "Kakori CHC 18 To 44", "district": "Lucknow", "state": "Uttar Pradesh", "pincode": 226101, "available": 2}, {"name": "CHC KOTWA AT BANI 18-44", "district": "Prayagraj", "state": "Uttar Pradesh", "pincode": 221505, "available": 186}, {"name": "TB Sapru Hosp 18 To 44", "district": "Prayagraj", "state": "Uttar Pradesh", "pincode": 211001, "available": 1}, {"name": "S M C AIR FORCE BAMRAULI", "district": "Prayagraj", "state": "Uttar Pradesh", "pincode": 211012, "available": 2}, {"name": "CHC Jasra 18-44", "district": "Prayagraj", "state": "Uttar Pradesh", "pincode": 212107, "available": 398}]}, {"name": "Uttarakhand", "count": 0, "centers": []}, {"name": "West Bengal", "count": 0, "centers": []}]}